{
    "links": {
        "self": "http://www.neowsapp.com/rest/v1/neo/3607957?api_key=iIulBulltgU6a56xZRHN4H3l9WmuAYTsLGpBGhQ2"
    },
    "id": "3607957",
    "neo_reference_id": "3607957",
    "name": "(2012 QV17)",
    "designation": "2012 QV17",
    "nasa_jpl_url": "http://ssd.jpl.nasa.gov/sbdb.cgi?sstr=3607957",
    "absolute_magnitude_h": 25.0,
    "estimated_diameter": {
        "kilometers": {
            "estimated_diameter_min": 0.02658,
            "estimated_diameter_max": 0.0594346868
        },
        "meters": {
            "estimated_diameter_min": 26.58,
            "estimated_diameter_max": 59.4346868419
        },
        "miles": {
            "estimated_diameter_min": 0.0165160412,
            "estimated_diameter_max": 0.0369309908
        },
        "feet": {
            "estimated_diameter_min": 87.2047272,
            "estimated_diameter_max": 194.9956979785
        }
    },
    "is_potentially_hazardous_asteroid": false,
    "close_approach_data": [
        {
            "close_approach_date": "2012-08-24",
            "close_approach_date_full": "2012-Aug-24 17:41",
            "epoch_date_close_approach": 1345830060000,
            "relative_velocity": {
                "kilometers_per_second": "10.3928084114",
                "kilometers_per_hour": "37414.1102810638",
                "miles_per_hour": "23247.6731354754"
            },
            "miss_distance": {
                "astronomical": "0.0234032817",
                "lunar": "9.1038765813",
                "kilometers": "3501081.093329979",
                "miles": "2175470.9134685502"
            },
            "orbiting_body": "Earth"
        }
    ],
    "orbital_data": {
        "orbit_id": "6",
        "orbit_determination_date": "2017-04-06 08:49:11",
        "first_observation_date": "2012-08-24",
        "last_observation_date": "2012-08-29",
        "data_arc_in_days": 5,
        "observations_used": 59,
        "orbit_uncertainty": "7",
        "minimum_orbit_intersection": ".00226321",
        "jupiter_tisserand_invariant": "2.960",
        "epoch_osculation": "2459000.5",
        "eccentricity": ".6422394397183674",
        "semi_major_axis": "2.80322029491757",
        "inclination": "11.31859859150408",
        "ascending_node_longitude": "150.5003203025486",
        "orbital_period": "1714.289913934952",
        "perihelion_distance": "1.002881663302553",
        "perihelion_argument": "189.4340193838361",
        "aphelion_distance": "4.603558926532586",
        "perihelion_time": "2459611.180588127283",
        "mean_anomaly": "231.7573906614235",
        "mean_motion": ".2099994855442288",
        "equinox": "J2000",
        "orbit_class": {
            "orbit_class_type": "APO",
            "orbit_class_description": "Near-Earth asteroid orbits which cross the Earth’s orbit similar to that of 1862 Apollo",
            "orbit_class_range": "a (semi-major axis) > 1.0 AU; q (perihelion) < 1.017 AU"
        }
    },
    "is_sentry_object": false
}